{"type": "FeatureCollection", "features": [ {"type": "Feature", "properties": {"norad_id": 30546, "name": "FENGYUN 1C DEB", "group": "fengyun-1c-debris", "lat": 36.12357326933789, "lon": -159.1490734641009, "alt_km": 628.3099215315033, "timestamp": "2025-12-16T21:38:57.451699+00:00", "meta": {"OBJECT_NAME": "FENGYUN 1C DEB", "OBJECT_ID": "1999-025AKL", "EPOCH": "2025-12-15T13:19:32.369664", "MEAN_MOTION": 14.87200543, "ECCENTRICITY": 0.00926832, "INCLINATION": 98.9088, "RA_OF_ASC_NODE": 205.9148, "ARG_OF_PERICENTER": 153.4344, "MEAN_ANOMALY": 237.7813, "EPHEMERIS_TYPE": 0, "CLASSIFICATION_TYPE": "U", "NORAD_CAT_ID": 30546, "ELEMENT_SET_NO": 999, "REV_AT_EPOCH": 499, "BSTAR": 0.0005309626, "MEAN_MOTION_DOT": 5.098e-05, "MEAN_MOTION_DDOT": 0}, "tle": {"line1": "1 30546U 99025AKL 25349.55523576  .00005098  00000+0  53096-3 0  9991", "line2": "2 30546  98.9088 205.9148 0092683 153.4344 237.7813 14.87200543  4990"}}, "geometry": {"type": "Point", "coordinates": [-159.1490734641009, 36.12357326933789]}}, {"type": "Feature", "properties": {"norad_id": 30547, "name": "FENGYUN 1C DEB", "group": "fengyun-1c-debris", "lat": 81.04870319815205, "lon": 98.34322934677466, "alt_km": 785.8332093623821, "timestamp": "2025-12-16T21:38:57.451709+00:00", "meta": {"OBJECT_NAME": "FENGYUN 1C DEB", "OBJECT_ID": "1999-025AKM", "EPOCH": "2025-12-16T01:53:30.700320", "MEAN_MOTION": 14.37756332, "ECCENTRICITY": 0.00952806, "INCLINATION": 98.902, "RA_OF_ASC_NODE": 193.1958, "ARG_OF_PERICENTER": 207.5209, "MEAN_ANOMALY": 305.8321, "EPHEMERIS_TYPE": 0, "CLASSIFICATION_TYPE": "U", "NORAD_CAT_ID": 30547, "ELEMENT_SET_NO": 999, "REV_AT_EPOCH": 98770, "BSTAR": 0.00025384927, "MEAN_MOTION_DOT": 7.56e-06, "MEAN_MOTION_DDOT": 0}, "tle": {"line1": "1 30547U 99025AKM 25350.07882755  .00000756  00000+0  25385-3 0  9994", "line2": "2 30547  98.9020 193.1958 0095280 207.5209 305.8321 14.37756332987708"}}, "geometry": {"type": "Point", "coordinates": [98.34322934677466, 81.04870319815205]}}, {"type": "Feature", "properties": {"norad_id": 30548, "name": "FENGYUN 1C DEB", "group": "fengyun-1c-debris", "lat": -4.687785331231459, "lon": 68.00243413179749, "alt_km": 842.6235136861569, "timestamp": "2025-12-16T21:38:57.451719+00:00", "meta": {"OBJECT_NAME": "FENGYUN 1C DEB", "OBJECT_ID": "1999-025AKN", "EPOCH": "2025-12-14T23:25:10.744320", "MEAN_MOTION": 14.26905538, "ECCENTRICITY": 0.00684529, "INCLINATION": 99.6817, "RA_OF_ASC_NODE": 246.6752, "ARG_OF_PERICENTER": 329.328, "MEAN_ANOMALY": 46.4209, "EPHEMERIS_TYPE": 0, "CLASSIFICATION_TYPE": "U", "NORAD_CAT_ID": 30548, "ELEMENT_SET_NO": 999, "REV_AT_EPOCH": 14127, "BSTAR": 0.0013925943, "MEAN_MOTION_DOT": 3.415e-05, "MEAN_MOTION_DDOT": 0}, "tle": {"line1": "1 30548U 99025AKN 25348.97581880  .00003415  00000+0  13926-2 0  9998", "line2": "2 30548  99.6817 246.6752 0068452 329.3280  46.4209 14.26905538141279"}}, "geometry": {"type": "Point", "coordinates": [68.00243413179749, -4.687785331231459]}}, {"type": "Feature", "properties": {"norad_id": 30549, "name": "FENGYUN 1C DEB", "group": "fengyun-1c-debris", "lat": -44.48715062736307, "lon": 119.45919126855323, "alt_km": 826.5836433036684, "timestamp": "2025-12-16T21:38:57.451729+00:00", "meta": {"OBJECT_NAME": "FENGYUN 1C DEB", "OBJECT_ID": "1999-025AKP", "EPOCH": "2025-12-03T07:39:14.923872", "MEAN_MOTION": 13.98584639, "ECCENTRICITY": 0.0288262, "INCLINATION": 98.4796, "RA_OF_ASC_NODE": 98.4482, "ARG_OF_PERICENTER": 283.4344, "MEAN_ANOMALY": 73.4847, "EPHEMERIS_TYPE": 0, "CLASSIFICATION_TYPE": "U", "NORAD_CAT_ID": 30549, "ELEMENT_SET_NO": 999, "REV_AT_EPOCH": 95162, "BSTAR": 0.0024216, "MEAN_MOTION_DOT": 4.917e-05, "MEAN_MOTION_DDOT": 0}, "tle": {"line1": "1 30549U 99025AKP 25337.31892273  .00004917  00000+0  24216-2 0  9998", "line2": "2 30549  98.4796  98.4482 0288262 283.4344  73.4847 13.98584639951629"}}, "geometry": {"type": "Point", "coordinates": [119.45919126855323, -44.48715062736307]}}, {"type": "Feature", "properties": {"norad_id": 30550, "name": "FENGYUN 1C DEB", "group": "fengyun-1c-debris", "lat": 13.416000462676141, "lon": 68.3520465211387, "alt_km": 932.8244902456963, "timestamp": "2025-12-16T21:38:57.451740+00:00", "meta": {"OBJECT_NAME": "FENGYUN 1C DEB", "OBJECT_ID": "1999-025AKQ", "EPOCH": "2025-12-14T04:31:27.130944", "MEAN_MOTION": 14.02413993, "ECCENTRICITY": 0.01325916, "INCLINATION": 99.0534, "RA_OF_ASC_NODE": 243.4762, "ARG_OF_PERICENTER": 293.3428, "MEAN_ANOMALY": 221.8167, "EPHEMERIS_TYPE": 0, "CLASSIFICATION_TYPE": "U", "NORAD_CAT_ID": 30550, "ELEMENT_SET_NO": 999, "REV_AT_EPOCH": 95415, "BSTAR": 0.0030922089, "MEAN_MOTION_DOT": 5.089e-05, "MEAN_MOTION_DDOT": 0}, "tle": {"line1": "1 30550U 99025AKQ 25348.18850846  .00005089  00000+0  30922-2 0  9999", "line2": "2 30550  99.0534 243.4762 0132591 293.3428 221.8167 14.02413993954152"}}, "geometry": {"type": "Point", "coordinates": [68.3520465211387, 13.416000462676141]}}, {"type": "Feature", "properties": {"norad_id": 30552, "name": "FENGYUN 1C DEB", "group": "fengyun-1c-debris", "lat": -59.85164085790062, "lon": -72.72683659802544, "alt_km": 706.2682136937437, "timestamp": "2025-12-16T21:38:57.451749+00:00", "meta": {"OBJECT_NAME": "FENGYUN 1C DEB", "OBJECT_ID": "1999-025AKS", "EPOCH": "2025-12-16T07:20:22.036704", "MEAN_MOTION": 14.54861382, "ECCENTRICITY": 0.00149837, "INCLINATION": 98.8337, "RA_OF_ASC_NODE": 122.1741, "ARG_OF_PERICENTER": 241.9732, "MEAN_ANOMALY": 117.9949, "EPHEMERIS_TYPE": 0, "CLASSIFICATION_TYPE": "U", "NORAD_CAT_ID": 30552, "ELEMENT_SET_NO": 999, "REV_AT_EPOCH": 97704, "BSTAR": 0.0021721303, "MEAN_MOTION_DOT": 9.301e-05, "MEAN_MOTION_DDOT": 0}, "tle": {"line1": "1 30552U 99025AKS 25350.30581061  .00009301  00000+0  21721-2 0  9996", "line2": "2 30552  98.8337 122.1741 0014983 241.9732 117.9949 14.54861382977045"}}, "geometry": {"type": "Point", "coordinates": [-72.72683659802544, -59.85164085790062]}}, {"type": "Feature", "properties": {"norad_id": 30553, "name": "FENGYUN 1C DEB", "group": "fengyun-1c-debris", "lat": -20.172573746190796, "lon": -97.08552099330446, "alt_km": 651.6105558072122, "timestamp": "2025-12-16T21:38:57.451762+00:00", "meta": {"OBJECT_NAME": "FENGYUN 1C DEB", "OBJECT_ID": "1999-025AKT", "EPOCH": "2025-12-15T18:38:56.972256", "MEAN_MOTION": 14.72408527, "ECCENTRICITY": 0.00202942, "INCLINATION": 99.1297, "RA_OF_ASC_NODE": 85.0392, "ARG_OF_PERICENTER": 142.4669, "MEAN_ANOMALY": 217.7956, "EPHEMERIS_TYPE": 0, "CLASSIFICATION_TYPE": "U", "NORAD_CAT_ID": 30553, "ELEMENT_SET_NO": 999, "REV_AT_EPOCH": 98518, "BSTAR": 0.0019986954, "MEAN_MOTION_DOT": 0.00012664, "MEAN_MOTION_DDOT": 0}, "tle": {"line1": "1 30553U 99025AKT 25349.77704829  .00012664  00000+0  19987-2 0  9992", "line2": "2 30553  99.1297  85.0392 0020294 142.4669 217.7956 14.72408527985189"}}, "geometry": {"type": "Point", "coordinates": [-97.08552099330446, -20.172573746190796]}}, {"type": "Feature", "properties": {"norad_id": 30555, "name": "FENGYUN 1C DEB", "group": "fengyun-1c-debris", "lat": -62.982434866841125, "lon": 61.98775361628465, "alt_km": 804.8935532665864, "timestamp": "2025-12-16T21:38:57.451784+00:00", "meta": {"OBJECT_NAME": "FENGYUN 1C DEB", "OBJECT_ID": "1999-025AKV", "EPOCH": "2025-12-16T03:38:52.166688", "MEAN_MOTION": 14.20826281, "ECCENTRICITY": 0.00427028, "INCLINATION": 98.7577, "RA_OF_ASC_NODE": 43.6483, "ARG_OF_PERICENTER": 261.5167, "MEAN_ANOMALY": 159.5204, "EPHEMERIS_TYPE": 0, "CLASSIFICATION_TYPE": "U", "NORAD_CAT_ID": 30555, "ELEMENT_SET_NO": 999, "REV_AT_EPOCH": 96984, "BSTAR": 0.0010356489, "MEAN_MOTION_DOT": 2.214e-05, "MEAN_MOTION_DDOT": 0}, "tle": {"line1": "1 30555U 99025AKV 25350.15199267  .00002214  00000+0  10356-2 0  9993", "line2": "2 30555  98.7577  43.6483 0042702 261.5167 159.5204 14.20826281969840"}}, "geometry": {"type": "Point", "coordinates": [61.98775361628465, -62.982434866841125]}}, {"type": "Feature", "properties": {"norad_id": 30556, "name": "FENGYUN 1C DEB", "group": "fengyun-1c-debris", "lat": 29.899862061763216, "lon": 169.09980242933756, "alt_km": 875.3178613509872, "timestamp": "2025-12-16T21:38:57.451794+00:00", "meta": {"OBJECT_NAME": "FENGYUN 1C DEB", "OBJECT_ID": "1999-025AKW", "EPOCH": "2025-12-15T22:55:06.447936", "MEAN_MOTION": 14.0136967, "ECCENTRICITY": 0.0068153, "INCLINATION": 98.7815, "RA_OF_ASC_NODE": 343.0892, "ARG_OF_PERICENTER": 228.4416, "MEAN_ANOMALY": 186.4219, "EPHEMERIS_TYPE": 0, "CLASSIFICATION_TYPE": "U", "NORAD_CAT_ID": 30556, "ELEMENT_SET_NO": 999, "REV_AT_EPOCH": 96302, "BSTAR": 0.00021355788, "MEAN_MOTION_DOT": 2.86e-06, "MEAN_MOTION_DDOT": 0}, "tle": {"line1": "1 30556U 99025AKW 25349.95493574  .00000286  00000+0  21356-3 0  9998", "line2": "2 30556  98.7815 343.0892 0068153 228.4416 186.4219 14.01369670963026"}}, "geometry": {"type": "Point", "coordinates": [169.09980242933756, 29.899862061763216]}}, {"type": "Feature", "properties": {"norad_id": 30557, "name": "FENGYUN 1C DEB", "group": "fengyun-1c-debris", "lat": 54.58103836889406, "lon": 43.27168478303387, "alt_km": 899.1783023860098, "timestamp": "2025-12-16T21:38:57.451807+00:00", "meta": {"OBJECT_NAME": "FENGYUN 1C DEB", "OBJECT_ID": "1999-025AKX", "EPOCH": "2025-12-16T04:21:44.753472", "MEAN_MOTION": 14.10815863, "ECCENTRICITY": 0.00683858, "INCLINATION": 98.9205, "RA_OF_ASC_NODE": 55.3158, "ARG_OF_PERICENTER": 222.9081, "MEAN_ANOMALY": 136.6743, "EPHEMERIS_TYPE": 0, "CLASSIFICATION_TYPE": "U", "NORAD_CAT_ID": 30557, "ELEMENT_SET_NO": 999, "REV_AT_EPOCH": 96349, "BSTAR": 0.0011814241, "MEAN_MOTION_DOT": 2.118e-05, "MEAN_MOTION_DDOT": 0}, "tle": {"line1": "1 30557U 99025AKX 25350.18176798  .00002118  00000+0  11814-2 0  9995", "line2": "2 30557  98.9205  55.3158 0068385 222.9081 136.6743 14.10815863963494"}}, "geometry": {"type": "Point", "coordinates": [43.27168478303387, 54.58103836889406]}}]}